     2              NAVIGATION DATA                         RINEX VERSION / TYPE
CCRINEXN V1.6.0 UX  CDDIS               07-MAR-26 18:42     PGM / RUN BY / DATE 
IGS BROADCAST EPHEMERIS FILE                                COMMENT             
    0.2421D-07  0.0000D+00 -0.1192D-06  0.5960D-07          ION ALPHA           
    0.1290D+06  0.0000D+00 -0.1966D+06 -0.6554D+05          ION BETA            
   -0.186264514923D-08-0.355271367880D-14   147456     2409 DELTA-UTC: A0,A1,T,W
    18                                                      LEAP SECONDS        
                                                            END OF HEADER       
 2 26  3  7 14  0  0.0 0.528339296579D-04 0.795807864051D-11 0.000000000000D+00
    0.340000000000D+02-0.757187500000D+02 0.456197573889D-08 0.734999719780D+00
   -0.441633164883D-05 0.168878879631D-01 0.595860183239D-05 0.515358901024D+04
    0.568800000000D+06 0.149011611938D-06 0.297165713002D+01-0.318512320519D-06
    0.963454071661D+00 0.266000000000D+03-0.809588840705D+00-0.836213403073D-08
   -0.433232331580D-09 0.100000000000D+01 0.240800000000D+04 0.000000000000D+00
    0.200000000000D+01 0.000000000000D+00-0.176951289177D-07 0.340000000000D+02
    0.567164000000D+06 0.400000000000D+01 0.000000000000D+00 0.000000000000D+00
 3 26  3  7 14  0  0.0 0.547737348825D-03-0.125055521494D-10 0.000000000000D+00
    0.880000000000D+02-0.631250000000D+01 0.340407036462D-08-0.285771555226D+01
   -0.301748514175D-06 0.649578904267D-02 0.108610838652D-04 0.515362723350D+04
    0.568800000000D+06-0.372529029846D-07-0.216225755142D+01-0.149011611938D-07
    0.993383143150D+00 0.185906250000D+03 0.120207168994D+01-0.734280585734D-08
    0.367515308488D-09 0.100000000000D+01 0.240800000000D+04 0.000000000000D+00
    0.200000000000D+01 0.000000000000D+00 0.139698386192D-08 0.880000000000D+02
    0.561618000000D+06 0.400000000000D+01 0.000000000000D+00 0.000000000000D+00
 5 26  3  7 14  0  0.0-0.229976139963D-03-0.568434188608D-12 0.000000000000D+00
    0.710000000000D+02-0.193750000000D+02 0.379337229490D-08 0.786159983839D+00
   -0.949949026108D-06 0.539760640822D-02 0.106859952211D-04 0.515371153641D+04
    0.568800000000D+06-0.484287738800D-07-0.222205731372D+01-0.745058059692D-07
    0.979956971096D+00 0.187687500000D+03 0.141668199307D+01-0.774532262378D-08
    0.250724729406D-09 0.100000000000D+01 0.240800000000D+04 0.000000000000D+00
    0.200000000000D+01 0.000000000000D+00-0.107102096081D-07 0.710000000000D+02
    0.563598000000D+06 0.400000000000D+01 0.000000000000D+00 0.000000000000D+00
 6 26  3  7 14  0  0.0-0.612436793745D-03-0.568434188608D-12 0.000000000000D+00
    0.180000000000D+02-0.826875000000D+02 0.389266214500D-08-0.154298107830D+01
   -0.425428152084D-05 0.385175121482D-02 0.717677175999D-05 0.515363818932D+04
    0.568800000000D+06-0.316649675369D-07 0.308477692525D+01 0.372529029846D-07
    0.987108529512D+00 0.257125000000D+03-0.562055769547D+00-0.790390065776D-08
   -0.358229207399D-09 0.100000000000D+01 0.240800000000D+04 0.000000000000D+00
    0.200000000000D+01 0.000000000000D+00 0.372529029846D-08 0.180000000000D+02
    0.561618000000D+06 0.400000000000D+01 0.000000000000D+00 0.000000000000D+00
 7 26  3  7 14  0  0.0-0.157677568495D-03-0.477484718431D-11 0.000000000000D+00
    0.300000000000D+02-0.467187500000D+02 0.474626912973D-08-0.240402019634D+01
   -0.264681875706D-05 0.205081991153D-01 0.833719968796D-05 0.515362238693D+04
    0.568800000000D+06 0.329688191414D-06-0.828318889549D-01 0.409781932831D-07
    0.951316468572D+00 0.205531250000D+03-0.199053145854D+01-0.781389690874D-08
   -0.151434879299D-09 0.100000000000D+01 0.240800000000D+04 0.000000000000D+00
    0.200000000000D+01 0.000000000000D+00-0.107102096081D-07 0.300000000000D+02
    0.561618000000D+06 0.400000000000D+01 0.000000000000D+00 0.000000000000D+00
 8 26  3  7 14  0  0.0 0.481950119138D-03-0.568434188608D-11 0.000000000000D+00
    0.600000000000D+02 0.496875000000D+02 0.532272171272D-08 0.423145764325D+00
    0.280141830444D-05 0.115824500099D-01 0.268407166004D-05 0.515368663406D+04
    0.568800000000D+06 0.651925802231D-07 0.196429351516D+01 0.201165676117D-06
    0.943155664916D+00 0.314093750000D+03 0.524776364185D+00-0.875929343116D-08
   -0.710743891050D-10 0.100000000000D+01 0.240800000000D+04 0.000000000000D+00
    0.200000000000D+01 0.000000000000D+00 0.465661287308D-08 0.600000000000D+02
    0.561618000000D+06 0.400000000000D+01 0.000000000000D+00 0.000000000000D+00
 9 26  3  7 14  0  0.0 0.767582096160D-03-0.159161572810D-11 0.000000000000D+00
    0.650000000000D+02 0.565625000000D+01 0.471091051405D-08 0.101464938724D+01
    0.331550836563D-06 0.335412763525D-02 0.502355396748D-05 0.515376749611D+04
    0.568800000000D+06 0.316649675369D-07-0.115584304123D+01-0.689178705216D-07
    0.964559710035D+00 0.283312500000D+03 0.206783119550D+01-0.824141471657D-08
    0.352514683652D-09 0.100000000000D+01 0.240800000000D+04 0.000000000000D+00
    0.200000000000D+01 0.000000000000D+00 0.465661287308D-09 0.650000000000D+02
    0.561618000000D+06 0.400000000000D+01 0.000000000000D+00 0.000000000000D+00
10 26  3  7 14  0  0.0-0.590000301599D-03-0.568434188608D-12 0.000000000000D+00
    0.960000000000D+02-0.453125000000D+01 0.344407203085D-08 0.243401805423D+01
   -0.301748514175D-06 0.109418815700D-01 0.100322067738D-04 0.515365229034D+04
    0.568800000000D+06 0.931322574616D-08-0.216476861080D+01-0.206753611565D-06
    0.992918119528D+00 0.202031250000D+03-0.225558385584D+01-0.738102173490D-08
    0.358943522867D-09 0.100000000000D+01 0.240800000000D+04 0.000000000000D+00
    0.200000000000D+01 0.000000000000D+00 0.232830600000D-08 0.960000000000D+02
    0.568740000000D+06 0.400000000000D+01 0.000000000000D+00 0.000000000000D+00
11 26  3  7 14  0  0.0-0.415533315390D-03 0.129602995003D-10 0.000000000000D+00
    0.231000000000D+03-0.799375000000D+02 0.442589864216D-08-0.451445073391D+00
   -0.420212745667D-05 0.220218743198D-02 0.668130815029D-05 0.515357752800D+04
    0.568800000000D+06 0.465661287308D-07 0.310345880898D+01 0.745058059692D-07
    0.963973991283D+00 0.253656250000D+03-0.230316191774D+01-0.820677041636D-08
   -0.408231290186D-09 0.100000000000D+01 0.240800000000D+04 0.000000000000D+00
    0.200000000000D+01 0.000000000000D+00-0.884756445885D-08 0.999000000000D+03
    0.561618000000D+06 0.400000000000D+01 0.000000000000D+00 0.000000000000D+00
13 26  3  7 14  0  0.0 0.684370752424D-03-0.136424205266D-11 0.000000000000D+00
    0.430000000000D+02-0.104062500000D+02 0.454411785218D-08 0.176492730556D+00
   -0.605359673500D-06 0.100079886615D-01 0.521913170815D-05 0.515366493988D+04
    0.568800000000D+06-0.707805156708D-07-0.980618095960D+00 0.124797224999D-06
    0.976062443250D+00 0.289718750000D+03 0.996594735485D+00-0.823141430002D-08
    0.155006456641D-09 0.100000000000D+01 0.240800000000D+04 0.000000000000D+00
    0.200000000000D+01 0.000000000000D+00-0.116415321827D-07 0.430000000000D+02
    0.567636000000D+06 0.400000000000D+01 0.000000000000D+00 0.000000000000D+00
14 26  3  7 14  0  0.0 0.738096889108D-03 0.181898940355D-11 0.000000000000D+00
    0.152000000000D+03 0.875937500000D+02 0.476662712058D-08 0.306044513925D+01
    0.449083745480D-05 0.673774292227D-02 0.106617808342D-04 0.515366251945D+04
    0.568800000000D+06-0.726431608200D-07 0.979939739383D+00-0.856816768646D-07
    0.942532036105D+00 0.165250000000D+03-0.274790970682D+01-0.799426156451D-08
    0.982183769039D-10 0.100000000000D+01 0.240800000000D+04 0.000000000000D+00
    0.200000000000D+01 0.000000000000D+00-0.838190317154D-08 0.152000000000D+03
    0.563976000000D+06 0.400000000000D+01 0.000000000000D+00 0.000000000000D+00
15 26  3  7 14  0  0.0 0.392056070268D-03 0.341060513165D-11 0.000000000000D+00
    0.690000000000D+02 0.107500000000D+02 0.523557522558D-08-0.574611461457D+00
    0.691041350365D-06 0.166088775732D-01 0.586360692978D-05 0.515369247627D+04
    0.568800000000D+06-0.176951289177D-06-0.130005838616D+01 0.108033418655D-06
    0.942430730491D+00 0.261406250000D+03 0.150274994167D+01-0.872750639282D-08
    0.470376735936D-09 0.100000000000D+01 0.240800000000D+04 0.000000000000D+00
    0.200000000000D+01 0.000000000000D+00-0.111758700000D-07 0.690000000000D+02
    0.561660000000D+06 0.400000000000D+01 0.000000000000D+00 0.000000000000D+00
16 26  3  7 14  0  0.0 0.221251975745D-03 0.727595761418D-11 0.000000000000D+00
    0.560000000000D+02 0.710312500000D+02 0.462912139291D-08 0.145155217132D+01
    0.377558171749D-05 0.150438256096D-01 0.100154429674D-04 0.515365591049D+04
    0.568800000000D+06-0.348314642906D-06 0.105162560137D+01 0.577419996262D-07
    0.958271747270D+00 0.190781250000D+03 0.929681547185D+00-0.815498254490D-08
    0.689314426998D-10 0.100000000000D+01 0.240800000000D+04 0.000000000000D+00
    0.200000000000D+01 0.000000000000D+00-0.107102096081D-07 0.560000000000D+02
    0.561618000000D+06 0.400000000000D+01 0.000000000000D+00 0.000000000000D+00
18 26  3  7 14  0  0.0-0.407950021326D-03 0.954969436862D-11 0.000000000000D+00
    0.195000000000D+03-0.702187500000D+02 0.409981363084D-08-0.162959080105D+01
   -0.371783971786D-05 0.575033668429D-02 0.674463808536D-05 0.515363699722D+04
    0.568800000000D+06-0.335276126862D-07 0.307967900831D+01-0.132247805595D-06
    0.972061709015D+00 0.256093750000D+03-0.286549713390D+01-0.789140013706D-08
   -0.301083969927D-09 0.100000000000D+01 0.240800000000D+04 0.000000000000D+00
    0.200000000000D+01 0.000000000000D+00-0.838190317154D-08 0.451000000000D+03
    0.561629000000D+06 0.400000000000D+01 0.000000000000D+00 0.000000000000D+00
